WORLDVIEW-1 (WV-1)      
1 32060U 07041A   26168.16077470  .00004754  00000+0  19765-3 0  9998
2 32060  97.3882 287.9044 0002265  21.6029 338.5303 15.24266290 42872
WORLDVIEW-2 (WV-2)      
1 35946U 09055A   26168.16379829  .00000086  00000+0  42910-4 0  9997
2 35946  98.4737 241.6137 0003707 208.0657 152.0331 14.37899407875643
YAOGAN-10               
1 36834U 10038A   26168.22941648  .00001167  00000+0  14198-3 0  9995
2 36834  97.8969 191.6331 0001651  86.4157  44.0787 14.85347994857219
VNREDSAT 1              
1 39160U 13021B   26168.15732285  .00000404  00000+0  84073-4 0  9995
2 39160  97.9080 221.5748 0001715  89.3921 270.7479 14.64856807700281
WORLDVIEW-3 (WV-3)      
1 40115U 14048A   26168.16736433  .00000666  00000+0  84323-4 0  9995
2 40115  97.8567 243.0005 0000989  26.0300 334.0965 14.85021902641908
YAOGAN-21               
1 40143U 14053A   26168.16260961  .00004140  00000+0  16171-3 0  9996
2 40143  97.1468 208.3989 0009968  93.6249 266.6130 15.26371775654950
UMBRA-09                
1 60541U 24149CB  26167.21053020  .00012525  00000+0  61858-3 0  9996
2 60541  97.6977 254.3989 0000609 274.6306  85.4857 15.18018194100574
UMBRA-10                
1 60547U 24149CH  26167.73742098  .00013025  00000+0  64287-3 0  9994
2 60547  97.6983 254.9626 0000493  71.7039 288.4247 15.18030439100665
UMBRA-11                
1 66748U 25276CL  26167.92900390  .00017601  00000+0  67184-3 0  9990
2 66748  97.4200 242.5606 0000984   0.1032   0.0207 15.26712742 30455
UMBRA-12                
1 67371U 26004J   26167.97279007  .00003153  00000+0  33816-3 0  9994
2 67371  97.8009 166.7456 0007571 124.5356 235.6577 14.89317096 23277
